STARLINK-36746          
1 67733U 26026N   26053.80254058 -.00632936  00000+0 -24335-2 0  9999
2 67733  97.2725 107.6873 0002090 199.0813 161.0382 15.88690750  1780
STARLINK-36749          
1 67734U 26026P   26053.67561101 -.00533513  00000+0 -19791-2 0  9996
2 67734  97.2715 107.5547 0000609  60.9206 299.2128 15.89198830  1766
STARLINK-36691          
1 67735U 26026Q   26053.60942925  .00720310  21777-3  20215-2 0  9999
2 67735  97.2721 107.4891 0013403 329.2709  30.7780 15.93433356  1751
STARLINK-36317          
1 67736U 26026R   26053.80027513 -.00509187  00000+0 -18709-2 0  9995
2 67736  97.2710 107.6894 0001297 149.5928 210.5420 15.89331692  1786
STARLINK-36330          
1 67737U 26026S   26053.67234407  .00603386  14470-3  19422-2 0  9990
2 67737  97.2702 107.5567 0003961 328.7861  31.3176 15.90910799  1769
STARLINK-36327          
1 67738U 26026T   26053.10524265  .00363508  52694-4  10592-2 0  9992
2 67738  97.2709 106.9523 0004408 161.3097 198.8340 15.92834545  1679
STARLINK-36329          
1 67739U 26026U   26053.79119609 -.00561664  10188-3 -17513-2 0  9996
2 67739  97.2687 107.7013 0001146 161.4521 198.6794 15.91487640  1789
STARLINK-36737          
1 67740U 26026V   26053.60652738  .01008593  46163-3  26798-2 0  9996
2 67740  97.2701 107.4938 0015211 321.4509  38.5680 15.94482693  1752
STARLINK-36740          
1 67741U 26026W   26053.79246088 -.00531478  91587-4 -16815-2 0  9998
2 67741  97.2689 107.7001 0001308 155.4051 204.7285 15.91197907  1780
STARLINK-36693          
1 67742U 26026X   26053.79524750 -.00577226  10616-3 -18916-2 0  9992
2 67742  97.2701 107.6968 0000445 105.1919 254.9404 15.90512040  1781
STARLINK-36717          
1 67743U 26026Y   26053.66747046 -.00778225  18732-3 -24501-2 0  9990
2 67743  97.2685 107.5635 0001204 107.5530 252.5876 15.91325664  1762
STARLINK-36692          
1 67744U 26026Z   26053.73129118 -.00690007  14892-3 -22179-2 0  9996
2 67744  97.2707 107.6305 0002940  45.5721 314.5793 15.90900134  1772
