CCSDS_OMM_VERS = 2.0
CREATION_DATE  = 
ORIGINATOR     = 

OBJECT_NAME    = STARLINK-36746
OBJECT_ID      = 2026-026N
CENTER_NAME    = EARTH
REF_FRAME      = TEME
TIME_SYSTEM    = UTC
MEAN_ELEMENT_THEORY = SGP/SGP4

EPOCH          = 2026-02-22T19:15:39.506112
MEAN_MOTION    = 15.88690750
ECCENTRICITY   = .000209
INCLINATION    = 97.2725
RA_OF_ASC_NODE = 107.6873
ARG_OF_PERICENTER = 199.0813
MEAN_ANOMALY   = 161.0382

EPHEMERIS_TYPE = 0
CLASSIFICATION_TYPE = U
NORAD_CAT_ID   = 67733
ELEMENT_SET_NO = 999
REV_AT_EPOCH   = 178
BSTAR          = -.24335E-2
MEAN_MOTION_DOT = -.632936E-2
MEAN_MOTION_DDOT = 0

CCSDS_OMM_VERS = 2.0
CREATION_DATE  = 
ORIGINATOR     = 

OBJECT_NAME    = STARLINK-36749
OBJECT_ID      = 2026-026P
CENTER_NAME    = EARTH
REF_FRAME      = TEME
TIME_SYSTEM    = UTC
MEAN_ELEMENT_THEORY = SGP/SGP4

EPOCH          = 2026-02-22T16:12:52.791264
MEAN_MOTION    = 15.89198830
ECCENTRICITY   = .0000609
INCLINATION    = 97.2715
RA_OF_ASC_NODE = 107.5547
ARG_OF_PERICENTER = 60.9206
MEAN_ANOMALY   = 299.2128

EPHEMERIS_TYPE = 0
CLASSIFICATION_TYPE = U
NORAD_CAT_ID   = 67734
ELEMENT_SET_NO = 999
REV_AT_EPOCH   = 176
BSTAR          = -.19791E-2
MEAN_MOTION_DOT = -.533513E-2
MEAN_MOTION_DDOT = 0

CCSDS_OMM_VERS = 2.0
CREATION_DATE  = 
ORIGINATOR     = 

OBJECT_NAME    = STARLINK-36691
OBJECT_ID      = 2026-026Q
CENTER_NAME    = EARTH
REF_FRAME      = TEME
TIME_SYSTEM    = UTC
MEAN_ELEMENT_THEORY = SGP/SGP4

EPOCH          = 2026-02-22T14:37:34.687200
MEAN_MOTION    = 15.93433356
ECCENTRICITY   = .0013403
INCLINATION    = 97.2721
RA_OF_ASC_NODE = 107.4891
ARG_OF_PERICENTER = 329.2709
MEAN_ANOMALY   = 30.7780

EPHEMERIS_TYPE = 0
CLASSIFICATION_TYPE = U
NORAD_CAT_ID   = 67735
ELEMENT_SET_NO = 999
REV_AT_EPOCH   = 175
BSTAR          = .20215E-2
MEAN_MOTION_DOT = .72031E-2
MEAN_MOTION_DDOT = .21777E-3

CCSDS_OMM_VERS = 2.0
CREATION_DATE  = 
ORIGINATOR     = 

OBJECT_NAME    = STARLINK-36317
OBJECT_ID      = 2026-026R
CENTER_NAME    = EARTH
REF_FRAME      = TEME
TIME_SYSTEM    = UTC
MEAN_ELEMENT_THEORY = SGP/SGP4

EPOCH          = 2026-02-22T19:12:23.771232
MEAN_MOTION    = 15.89331692
ECCENTRICITY   = .0001297
INCLINATION    = 97.2710
RA_OF_ASC_NODE = 107.6894
ARG_OF_PERICENTER = 149.5928
MEAN_ANOMALY   = 210.5420

EPHEMERIS_TYPE = 0
CLASSIFICATION_TYPE = U
NORAD_CAT_ID   = 67736
ELEMENT_SET_NO = 999
REV_AT_EPOCH   = 178
BSTAR          = -.18709E-2
MEAN_MOTION_DOT = -.509187E-2
MEAN_MOTION_DDOT = 0

CCSDS_OMM_VERS = 2.0
CREATION_DATE  = 
ORIGINATOR     = 

OBJECT_NAME    = STARLINK-36330
OBJECT_ID      = 2026-026S
CENTER_NAME    = EARTH
REF_FRAME      = TEME
TIME_SYSTEM    = UTC
MEAN_ELEMENT_THEORY = SGP/SGP4

EPOCH          = 2026-02-22T16:08:10.527648
MEAN_MOTION    = 15.90910799
ECCENTRICITY   = .0003961
INCLINATION    = 97.2702
RA_OF_ASC_NODE = 107.5567
ARG_OF_PERICENTER = 328.7861
MEAN_ANOMALY   = 31.3176

EPHEMERIS_TYPE = 0
CLASSIFICATION_TYPE = U
NORAD_CAT_ID   = 67737
ELEMENT_SET_NO = 999
REV_AT_EPOCH   = 176
BSTAR          = .19422E-2
MEAN_MOTION_DOT = .603386E-2
MEAN_MOTION_DDOT = .1447E-3

CCSDS_OMM_VERS = 2.0
CREATION_DATE  = 
ORIGINATOR     = 

OBJECT_NAME    = STARLINK-36327
OBJECT_ID      = 2026-026T
CENTER_NAME    = EARTH
REF_FRAME      = TEME
TIME_SYSTEM    = UTC
MEAN_ELEMENT_THEORY = SGP/SGP4

EPOCH          = 2026-02-22T02:31:32.964960
MEAN_MOTION    = 15.92834545
ECCENTRICITY   = .0004408
INCLINATION    = 97.2709
RA_OF_ASC_NODE = 106.9523
ARG_OF_PERICENTER = 161.3097
MEAN_ANOMALY   = 198.8340

EPHEMERIS_TYPE = 0
CLASSIFICATION_TYPE = U
NORAD_CAT_ID   = 67738
ELEMENT_SET_NO = 999
REV_AT_EPOCH   = 167
BSTAR          = .10592E-2
MEAN_MOTION_DOT = .363508E-2
MEAN_MOTION_DDOT = .52694E-4

CCSDS_OMM_VERS = 2.0
CREATION_DATE  = 
ORIGINATOR     = 

OBJECT_NAME    = STARLINK-36329
OBJECT_ID      = 2026-026U
CENTER_NAME    = EARTH
REF_FRAME      = TEME
TIME_SYSTEM    = UTC
MEAN_ELEMENT_THEORY = SGP/SGP4

EPOCH          = 2026-02-22T18:59:19.342176
MEAN_MOTION    = 15.91487640
ECCENTRICITY   = .0001146
INCLINATION    = 97.2687
RA_OF_ASC_NODE = 107.7013
ARG_OF_PERICENTER = 161.4521
MEAN_ANOMALY   = 198.6794

EPHEMERIS_TYPE = 0
CLASSIFICATION_TYPE = U
NORAD_CAT_ID   = 67739
ELEMENT_SET_NO = 999
REV_AT_EPOCH   = 178
BSTAR          = -.17513E-2
MEAN_MOTION_DOT = -.561664E-2
MEAN_MOTION_DDOT = .10188E-3

CCSDS_OMM_VERS = 2.0
CREATION_DATE  = 
ORIGINATOR     = 

OBJECT_NAME    = STARLINK-36737
OBJECT_ID      = 2026-026V
CENTER_NAME    = EARTH
REF_FRAME      = TEME
TIME_SYSTEM    = UTC
MEAN_ELEMENT_THEORY = SGP/SGP4

EPOCH          = 2026-02-22T14:33:23.965632
MEAN_MOTION    = 15.94482693
ECCENTRICITY   = .0015211
INCLINATION    = 97.2701
RA_OF_ASC_NODE = 107.4938
ARG_OF_PERICENTER = 321.4509
MEAN_ANOMALY   = 38.5680

EPHEMERIS_TYPE = 0
CLASSIFICATION_TYPE = U
NORAD_CAT_ID   = 67740
ELEMENT_SET_NO = 999
REV_AT_EPOCH   = 175
BSTAR          = .26798E-2
MEAN_MOTION_DOT = .1008593E-1
MEAN_MOTION_DDOT = .46163E-3

CCSDS_OMM_VERS = 2.0
CREATION_DATE  = 
ORIGINATOR     = 

OBJECT_NAME    = STARLINK-36740
OBJECT_ID      = 2026-026W
CENTER_NAME    = EARTH
REF_FRAME      = TEME
TIME_SYSTEM    = UTC
MEAN_ELEMENT_THEORY = SGP/SGP4

EPOCH          = 2026-02-22T19:01:08.620032
MEAN_MOTION    = 15.91197907
ECCENTRICITY   = .0001308
INCLINATION    = 97.2689
RA_OF_ASC_NODE = 107.7001
ARG_OF_PERICENTER = 155.4051
MEAN_ANOMALY   = 204.7285

EPHEMERIS_TYPE = 0
CLASSIFICATION_TYPE = U
NORAD_CAT_ID   = 67741
ELEMENT_SET_NO = 999
REV_AT_EPOCH   = 178
BSTAR          = -.16815E-2
MEAN_MOTION_DOT = -.531478E-2
MEAN_MOTION_DDOT = .91587E-4

CCSDS_OMM_VERS = 2.0
CREATION_DATE  = 
ORIGINATOR     = 

OBJECT_NAME    = STARLINK-36693
OBJECT_ID      = 2026-026X
CENTER_NAME    = EARTH
REF_FRAME      = TEME
TIME_SYSTEM    = UTC
MEAN_ELEMENT_THEORY = SGP/SGP4

EPOCH          = 2026-02-22T19:05:09.384000
MEAN_MOTION    = 15.90512040
ECCENTRICITY   = .0000445
INCLINATION    = 97.2701
RA_OF_ASC_NODE = 107.6968
ARG_OF_PERICENTER = 105.1919
MEAN_ANOMALY   = 254.9404

EPHEMERIS_TYPE = 0
CLASSIFICATION_TYPE = U
NORAD_CAT_ID   = 67742
ELEMENT_SET_NO = 999
REV_AT_EPOCH   = 178
BSTAR          = -.18916E-2
MEAN_MOTION_DOT = -.577226E-2
MEAN_MOTION_DDOT = .10616E-3

CCSDS_OMM_VERS = 2.0
CREATION_DATE  = 
ORIGINATOR     = 

OBJECT_NAME    = STARLINK-36717
OBJECT_ID      = 2026-026Y
CENTER_NAME    = EARTH
REF_FRAME      = TEME
TIME_SYSTEM    = UTC
MEAN_ELEMENT_THEORY = SGP/SGP4

EPOCH          = 2026-02-22T16:01:09.447744
MEAN_MOTION    = 15.91325664
ECCENTRICITY   = .0001204
INCLINATION    = 97.2685
RA_OF_ASC_NODE = 107.5635
ARG_OF_PERICENTER = 107.5530
MEAN_ANOMALY   = 252.5876

EPHEMERIS_TYPE = 0
CLASSIFICATION_TYPE = U
NORAD_CAT_ID   = 67743
ELEMENT_SET_NO = 999
REV_AT_EPOCH   = 176
BSTAR          = -.24501E-2
MEAN_MOTION_DOT = -.778225E-2
MEAN_MOTION_DDOT = .18732E-3

CCSDS_OMM_VERS = 2.0
CREATION_DATE  = 
ORIGINATOR     = 

OBJECT_NAME    = STARLINK-36692
OBJECT_ID      = 2026-026Z
CENTER_NAME    = EARTH
REF_FRAME      = TEME
TIME_SYSTEM    = UTC
MEAN_ELEMENT_THEORY = SGP/SGP4

EPOCH          = 2026-02-22T17:33:03.557952
MEAN_MOTION    = 15.90900134
ECCENTRICITY   = .000294
INCLINATION    = 97.2707
RA_OF_ASC_NODE = 107.6305
ARG_OF_PERICENTER = 45.5721
MEAN_ANOMALY   = 314.5793

EPHEMERIS_TYPE = 0
CLASSIFICATION_TYPE = U
NORAD_CAT_ID   = 67744
ELEMENT_SET_NO = 999
REV_AT_EPOCH   = 177
BSTAR          = -.22179E-2
MEAN_MOTION_DOT = -.690007E-2
MEAN_MOTION_DDOT = .14892E-3

